YAOGAN-30 11A           
1 49026U 21065A   26068.71073618  .00004757  00000+0  35664-3 0  9999
2 49026  34.9929 159.1721 0004674 355.4238   4.6427 15.02110690253677
STARLINK-5672           
1 55468U 23015V   26068.07602910 -.00000148  00000+0  41533-5 0  9990
2 55468  43.0077 329.1543 0001700 265.8854  94.1794 15.02534256170661
